[{"OBJECT_NAME":"TIANMU-1 10","OBJECT_ID":"2023-101D","EPOCH":"2026-03-09T23:06:46.939392","MEAN_MOTION":15.2921896,"ECCENTRICITY":0.00069292,"INCLINATION":97.2749,"RA_OF_ASC_NODE":122.1027,"ARG_OF_PERICENTER":133.6162,"MEAN_ANOMALY":226.5654,"EPHEMERIS_TYPE":0,"CLASSIFICATION_TYPE":"U","NORAD_CAT_ID":57402,"ELEMENT_SET_NO":999,"REV_AT_EPOCH":14647,"BSTAR":0.00032238884,"MEAN_MOTION_DOT":9.075e-5,"MEAN_MOTION_DDOT":0},{"OBJECT_NAME":"STARLINK-32603","OBJECT_ID":"2024-217R","EPOCH":"2026-03-09T14:03:34.630272","MEAN_MOTION":15.30195162,"ECCENTRICITY":0.0001028,"INCLINATION":53.1591,"RA_OF_ASC_NODE":194.5036,"ARG_OF_PERICENTER":114.8827,"MEAN_ANOMALY":245.2281,"EPHEMERIS_TYPE":0,"CLASSIFICATION_TYPE":"U","NORAD_CAT_ID":62072,"ELEMENT_SET_NO":999,"REV_AT_EPOCH":7345,"BSTAR":0.0018575,"MEAN_MOTION_DOT":0.00055056,"MEAN_MOTION_DDOT":0}]
